start=new Date('2021-09-26T00:00:00.000Z').valueOf();
sats=[{"TIME_SYSTEM":"UTC","LAUNCH_DATE":"2020-04-22","SITE":"AFETR","INCLINATION":"53.0541","REV_AT_EPOCH":"8009","EPOCH":"2021-09-25T10:41:32.843328","FILE":"3128274","APOAPSIS":"548.502","CLASSIFICATION_TYPE":"U","GP_ID":"185505475","MEAN_MOTION_DDOT":"0.0000000000000","ELEMENT_SET_NO":"999","CENTER_NAME":"EARTH","MEAN_MOTION_DOT":"0.00001253","DECAY_DATE":null,"RCS_SIZE":"LARGE","TLE_LINE2":"2 45573  53.0541 177.1177 0001757  77.6667 282.4519 15.06376602 80098","MEAN_ELEMENT_THEORY":"SGP4","REF_FRAME":"TEME","SEMIMAJOR_AXIS":"6925.420","NORAD_CAT_ID":"45573","BSTAR":"0.00010309000000","ARG_OF_PERICENTER":"77.6667","MEAN_MOTION":"15.06376602","MEAN_ANOMALY":"282.4519","RA_OF_ASC_NODE":"177.1177","PERIOD":"95.594","TLE_LINE1":"1 45573U 20025AU  21268.44551902  .00001253  00000-0  10309-3 0  9999","PERIAPSIS":"546.068","ECCENTRICITY":"0.00017570","OBJECT_NAME":"STARLINK-1321","COUNTRY_CODE":"US","EPHEMERIS_TYPE":"0","OBJECT_ID":"2020-025AU","OBJECT_TYPE":"PAYLOAD"},{"CLASSIFICATION_TYPE":"U","EPOCH":"2021-09-25T11:18:39.572640","FILE":"3128274","APOAPSIS":"548.559","REV_AT_EPOCH":"8041","SITE":"AFETR","INCLINATION":"53.0545","LAUNCH_DATE":"2020-04-22","TIME_SYSTEM":"UTC","MEAN_MOTION_DOT":"0.00000346","ELEMENT_SET_NO":"999","CENTER_NAME":"EARTH","MEAN_MOTION_DDOT":"0.0000000000000","GP_ID":"185505725","MEAN_MOTION":"15.06400747","ARG_OF_PERICENTER":"76.9140","MEAN_ELEMENT_THEORY":"SGP4","REF_FRAME":"TEME","SEMIMAJOR_AXIS":"6925.346","NORAD_CAT_ID":"45574","BSTAR":"0.00004210400000","TLE_LINE2":"2 45574  53.0545 177.0038 0001946  76.9140 283.2066 15.06400747 80416","RCS_SIZE":"LARGE","DECAY_DATE":null,"OBJECT_TYPE":"PAYLOAD","OBJECT_ID":"2020-025AV","COUNTRY_CODE":"US","EPHEMERIS_TYPE":"0","PERIAPSIS":"545.864","TLE_LINE1":"1 45574U 20025AV  21268.47129135  .00000346  00000-0  42104-4 0  9993","ECCENTRICITY":"0.00019460","OBJECT_NAME":"STARLINK-1324","PERIOD":"95.592","RA_OF_ASC_NODE":"177.0038","MEAN_ANOMALY":"283.2066"},{"MEAN_MOTION_DOT":"0.00005781","ELEMENT_SET_NO":"999","CENTER_NAME":"EARTH","GP_ID":"185503973","MEAN_MOTION_DDOT":"0.0000000000000","EPOCH":"2021-09-25T11:07:29.774784","FILE":"3128274","APOAPSIS":"544.049","CLASSIFICATION_TYPE":"U","REV_AT_EPOCH":"8043","SITE":"AFETR","INCLINATION":"53.0005","LAUNCH_DATE":"2020-04-22","TIME_SYSTEM":"UTC","OBJECT_TYPE":"PAYLOAD","OBJECT_ID":"2020-025AW","OBJECT_NAME":"STARLINK-1326","TLE_LINE1":"1 45575U 20025AW  21268.46353906  .00005781  00000-0  39119-3 0  9997","PERIAPSIS":"541.455","ECCENTRICITY":"0.00018740","COUNTRY_CODE":"US","EPHEMERIS_TYPE":"0","PERIOD":"95.500","MEAN_ANOMALY":"281.3220","RA_OF_ASC_NODE":"174.1225","ARG_OF_PERICENTER":"78.7979","MEAN_MOTION":"15.07856782","MEAN_ELEMENT_THEORY":"SGP4","REF_FRAME":"TEME","SEMIMAJOR_AXIS":"6920.887","BSTAR":"0.00039119000000","NORAD_CAT_ID":"45575","TLE_LINE2":"2 45575  53.0005 174.1225 0001874  78.7979 281.3220 15.07856782 80432","DECAY_DATE":null,"RCS_SIZE":"LARGE"},{"MEAN_MOTION_DOT":"-0.00001057","CENTER_NAME":"EARTH","ELEMENT_SET_NO":"999","GP_ID":"185468011","MEAN_MOTION_DDOT":"0.0000000000000","APOAPSIS":"548.695","EPOCH":"2021-09-25T00:47:02.809824","FILE":"3127665","CLASSIFICATION_TYPE":"U","REV_AT_EPOCH":"8034","INCLINATION":"53.0522","SITE":"AFETR","TIME_SYSTEM":"UTC","LAUNCH_DATE":"2020-04-22","OBJECT_TYPE":"PAYLOAD","OBJECT_ID":"2020-025AX","ECCENTRICITY":"0.00021430","TLE_LINE1":"1 45576U 20025AX  21268.03267141 -.00001057  00000-0 -52016-4 0  9992","PERIAPSIS":"545.727","OBJECT_NAME":"STARLINK-1328","EPHEMERIS_TYPE":"0","COUNTRY_CODE":"US","PERIOD":"95.592","MEAN_ANOMALY":"307.2752","RA_OF_ASC_NODE":"178.9742","ARG_OF_PERICENTER":"52.8432","MEAN_MOTION":"15.06400859","NORAD_CAT_ID":"45576","SEMIMAJOR_AXIS":"6925.346","BSTAR":"-0.00005201600000","MEAN_ELEMENT_THEORY":"SGP4","REF_FRAME":"TEME","TLE_LINE2":"2 45576  53.0522 178.9742 0002143  52.8432 307.2752 15.06400859 80347","RCS_SIZE":"LARGE","DECAY_DATE":null},{"PERIOD":"95.591","MEAN_ANOMALY":"287.1085","RA_OF_ASC_NODE":"177.0887","OBJECT_TYPE":"PAYLOAD","OBJECT_ID":"2020-025AY","TLE_LINE1":"1 45577U 20025AY  21268.45286001  .00000519  00000-0  53727-4 0  9995","PERIAPSIS":"545.985","OBJECT_NAME":"STARLINK-1330","ECCENTRICITY":"0.00017290","COUNTRY_CODE":"US","EPHEMERIS_TYPE":"0","TLE_LINE2":"2 45577  53.0548 177.0887 0001729  73.0093 287.1085 15.06410089 80399","DECAY_DATE":null,"RCS_SIZE":"LARGE","ARG_OF_PERICENTER":"73.0093","MEAN_MOTION":"15.06410089","MEAN_ELEMENT_THEORY":"SGP4","REF_FRAME":"TEME","SEMIMAJOR_AXIS":"6925.318","BSTAR":"0.00005372700000","NORAD_CAT_ID":"45577","GP_ID":"185504975","MEAN_MOTION_DDOT":"0.0000000000000","MEAN_MOTION_DOT":"0.00000519","ELEMENT_SET_NO":"999","CENTER_NAME":"EARTH","INCLINATION":"53.0548","SITE":"AFETR","LAUNCH_DATE":"2020-04-22","TIME_SYSTEM":"UTC","EPOCH":"2021-09-25T10:52:07.104864","FILE":"3128274","APOAPSIS":"548.380","CLASSIFICATION_TYPE":"U","REV_AT_EPOCH":"8039"},{"TLE_LINE2":"2 45578  53.0551 176.9202 0001877  79.1871 280.9329 15.06406084 80413","RCS_SIZE":"LARGE","DECAY_DATE":null,"MEAN_MOTION":"15.06406084","ARG_OF_PERICENTER":"79.1871","REF_FRAME":"TEME","MEAN_ELEMENT_THEORY":"SGP4","NORAD_CAT_ID":"45578","SEMIMAJOR_AXIS":"6925.330","BSTAR":"0.00014838000000","PERIOD":"95.592","RA_OF_ASC_NODE":"176.9202","MEAN_ANOMALY":"280.9329","OBJECT_TYPE":"PAYLOAD","OBJECT_ID":"2020-025AZ","COUNTRY_CODE":"US","EPHEMERIS_TYPE":"0","TLE_LINE1":"1 45578U 20025AZ  21268.48971354  .00001929  00000-0  14838-3 0  9996","PERIAPSIS":"545.895","ECCENTRICITY":"0.00018770","OBJECT_NAME":"STARLINK-1331","INCLINATION":"53.0551","SITE":"AFETR","TIME_SYSTEM":"UTC","LAUNCH_DATE":"2020-04-22","CLASSIFICATION_TYPE":"U","FILE":"3128274","EPOCH":"2021-09-25T11:45:11.249856","APOAPSIS":"548.495","REV_AT_EPOCH":"8041","MEAN_MOTION_DDOT":"0.0000000000000","GP_ID":"185505225","MEAN_MOTION_DOT":"0.00001929","ELEMENT_SET_NO":"999","CENTER_NAME":"EARTH"},{"PERIAPSIS":"545.285","TLE_LINE1":"1 45579U 20025BA  21268.34870662  .00000253  00000-0  35892-4 0  9995","OBJECT_NAME":"STARLINK-1332","ECCENTRICITY":"0.00027720","COUNTRY_CODE":"US","EPHEMERIS_TYPE":"0","OBJECT_TYPE":"PAYLOAD","OBJECT_ID":"2020-025BA","MEAN_ANOMALY":"87.5741","RA_OF_ASC_NODE":"137.5515","PERIOD":"95.592","REF_FRAME":"TEME","MEAN_ELEMENT_THEORY":"SGP4","SEMIMAJOR_AXIS":"6925.340","BSTAR":"0.00003589200000","NORAD_CAT_ID":"45579","ARG_OF_PERICENTER":"272.4930","MEAN_MOTION":"15.06402792","DECAY_DATE":null,"RCS_SIZE":"LARGE","TLE_LINE2":"2 45579  53.0534 137.5515 0002772 272.4930  87.5741 15.06402792 80943","ELEMENT_SET_NO":"999","CENTER_NAME":"EARTH","MEAN_MOTION_DOT":"0.00000253","GP_ID":"185504474","MEAN_MOTION_DDOT":"0.0000000000000","REV_AT_EPOCH":"8094","EPOCH":"2021-09-25T08:22:08.251968","FILE":"3128274","APOAPSIS":"549.125","CLASSIFICATION_TYPE":"U","TIME_SYSTEM":"UTC","LAUNCH_DATE":"2020-04-22","INCLINATION":"53.0534","SITE":"AFETR"},{"PERIAPSIS":"545.757","TLE_LINE1":"1 45580U 20025BB  21268.49618157  .00003007  00000-0  22062-3 0  9996","OBJECT_NAME":"STARLINK-1333","ECCENTRICITY":"0.00020520","COUNTRY_CODE":"US","EPHEMERIS_TYPE":"0","OBJECT_ID":"2020-025BB","OBJECT_TYPE":"PAYLOAD","MEAN_ANOMALY":"281.9448","RA_OF_ASC_NODE":"186.8894","PERIOD":"95.591","REF_FRAME":"TEME","MEAN_ELEMENT_THEORY":"SGP4","BSTAR":"0.00022062000000","SEMIMAJOR_AXIS":"6925.313","NORAD_CAT_ID":"45580","ARG_OF_PERICENTER":"78.1771","MEAN_MOTION":"15.06411692","RCS_SIZE":"LARGE","DECAY_DATE":null,"TLE_LINE2":"2 45580  53.0535 186.8894 0002052  78.1771 281.9448 15.06411692 80266","ELEMENT_SET_NO":"999","CENTER_NAME":"EARTH","MEAN_MOTION_DOT":"0.00003007","GP_ID":"185504724","MEAN_MOTION_DDOT":"0.0000000000000","REV_AT_EPOCH":"8026","EPOCH":"2021-09-25T11:54:30.087648","FILE":"3128274","APOAPSIS":"548.599","CLASSIFICATION_TYPE":"U","TIME_SYSTEM":"UTC","LAUNCH_DATE":"2020-04-22","SITE":"AFETR","INCLINATION":"53.0535"},{"RA_OF_ASC_NODE":"178.9581","MEAN_ANOMALY":"293.7945","PERIOD":"95.592","EPHEMERIS_TYPE":"0","COUNTRY_CODE":"US","TLE_LINE1":"1 45581U 20025BC  21268.03635254 -.00000712  00000-0 -28890-4 0  9992","PERIAPSIS":"545.896","ECCENTRICITY":"0.00019080","OBJECT_NAME":"STARLINK-1335","OBJECT_TYPE":"PAYLOAD","OBJECT_ID":"2020-025BC","DECAY_DATE":null,"RCS_SIZE":"LARGE","TLE_LINE2":"2 45581  53.0536 178.9581 0001908  66.3244 293.7945 15.06398914 80338","NORAD_CAT_ID":"45581","SEMIMAJOR_AXIS":"6925.352","BSTAR":"-0.00002889000000","MEAN_ELEMENT_THEORY":"SGP4","REF_FRAME":"TEME","MEAN_MOTION":"15.06398914","ARG_OF_PERICENTER":"66.3244","MEAN_MOTION_DDOT":"0.0000000000000","GP_ID":"185466769","CENTER_NAME":"EARTH","ELEMENT_SET_NO":"999","MEAN_MOTION_DOT":"-0.00000712","TIME_SYSTEM":"UTC","LAUNCH_DATE":"2020-04-22","SITE":"AFETR","INCLINATION":"53.0536","REV_AT_EPOCH":"8033","CLASSIFICATION_TYPE":"U","APOAPSIS":"548.538","FILE":"3127665","EPOCH":"2021-09-25T00:52:20.859456"},{"MEAN_MOTION":"15.06393606","ARG_OF_PERICENTER":"71.8919","SEMIMAJOR_AXIS":"6925.368","NORAD_CAT_ID":"45582","BSTAR":"-0.00009389200000","REF_FRAME":"TEME","MEAN_ELEMENT_THEORY":"SGP4","TLE_LINE2":"2 45582  53.0551 177.0722 0002125  71.8919 288.2301 15.06393606 80399","DECAY_DATE":null,"RCS_SIZE":"LARGE","OBJECT_ID":"2020-025BD","OBJECT_TYPE":"PAYLOAD","EPHEMERIS_TYPE":"0","COUNTRY_CODE":"US","TLE_LINE1":"1 45582U 20025BD  21268.45655737 -.00001680  00000-0 -93892-4 0  9996","ECCENTRICITY":"0.00021250","PERIAPSIS":"545.762","OBJECT_NAME":"STARLINK-1337","PERIOD":"95.593","RA_OF_ASC_NODE":"177.0722","MEAN_ANOMALY":"288.2301","CLASSIFICATION_TYPE":"U","APOAPSIS":"548.705","EPOCH":"2021-09-25T10:57:26.556768","FILE":"3128274","REV_AT_EPOCH":"8039","SITE":"AFETR","INCLINATION":"53.0551","LAUNCH_DATE":"2020-04-22","TIME_SYSTEM":"UTC","MEAN_MOTION_DOT":"-0.00001680","CENTER_NAME":"EARTH","ELEMENT_SET_NO":"999","MEAN_MOTION_DDOT":"0.0000000000000","GP_ID":"185505726"}];
